{
  "type": "FeatureCollection",
  "features": [
    {
      "type": "Feature",
      "properties": {
        "norad_id": 66390,
        "name": "STARLINK-35665",
        "group": "last-30-days",
        "lat": 52.91229440907753,
        "lon": 13.064952817845539,
        "alt_km": 410.1805873329722,
        "timestamp": "2025-12-07T03:52:31.202264+00:00",
        "meta_object_name": "STARLINK-35665",
        "meta_object_id": "2025-257L",
        "meta_epoch": "2025-12-06T04:17:12.780096",
        "meta_mean_motion": 15.49341653,
        "meta_eccentricity": 0.00011183,
        "meta_inclination": 53.1591,
        "meta_ra_of_asc_node": 295.1167,
        "meta_arg_of_pericenter": 82.6759,
        "meta_mean_anomaly": 277.4377,
        "meta_ephemeris_type": 0,
        "meta_classification_type": "U",
        "meta_norad_cat_id": 66390,
        "meta_element_set_no": 999,
        "meta_rev_at_epoch": 546,
        "meta_bstar": 0.0018780257,
        "meta_mean_motion_dot": 0.00105543,
        "meta_mean_motion_ddot": 0,
        "tle_line1": "1 66390U 25257L   25340.17862014  .00105543  00000+0  18780-2 0  9991",
        "tle_line2": "2 66390  53.1591 295.1167 0001118  82.6759 277.4377 15.49341653  5462"
      },
      "geometry": {
        "type": "Point",
        "coordinates": [
          13.064952817845539,
          52.91229440907753
        ]
      }
    },
    {
      "type": "Feature",
      "properties": {
        "norad_id": 66391,
        "name": "STARLINK-35656",
        "group": "last-30-days",
        "lat": -26.24709168812411,
        "lon": -91.05400124544077,
        "alt_km": 444.3663555584799,
        "timestamp": "2025-12-07T03:52:31.202275+00:00",
        "meta_object_name": "STARLINK-35656",
        "meta_object_id": "2025-257M",
        "meta_epoch": "2025-12-05T03:46:18.556608",
        "meta_mean_motion": 15.40317588,
        "meta_eccentricity": 9.833e-05,
        "meta_inclination": 53.1603,
        "meta_ra_of_asc_node": 300.1096,
        "meta_arg_of_pericenter": 171.4639,
        "meta_mean_anomaly": 188.6383,
        "meta_ephemeris_type": 0,
        "meta_classification_type": "U",
        "meta_norad_cat_id": 66391,
        "meta_element_set_no": 999,
        "meta_rev_at_epoch": 530,
        "meta_bstar": 0.0098522303,
        "meta_mean_motion_dot": 0.00426205,
        "meta_mean_motion_ddot": 0,
        "tle_line1": "1 66391U 25257M   25339.15715922  .00426205  00000+0  98522-2 0  9996",
        "tle_line2": "2 66391  53.1603 300.1096 0000983 171.4639 188.6383 15.40317588  5302"
      },
      "geometry": {
        "type": "Point",
        "coordinates": [
          -91.05400124544077,
          -26.24709168812411
        ]
      }
    },
    {
      "type": "Feature",
      "properties": {
        "norad_id": 66392,
        "name": "STARLINK-35671",
        "group": "last-30-days",
        "lat": -48.42306293361495,
        "lon": -126.95529367582562,
        "alt_km": 453.91624320960545,
        "timestamp": "2025-12-07T03:52:31.202286+00:00",
        "meta_object_name": "STARLINK-35671",
        "meta_object_id": "2025-257N",
        "meta_epoch": "2025-12-06T14:00:01.999872",
        "meta_mean_motion": 15.39738246,
        "meta_eccentricity": 0.00019634,
        "meta_inclination": 53.1603,
        "meta_ra_of_asc_node": 293.4521,
        "meta_arg_of_pericenter": 98.5523,
        "meta_mean_anomaly": 226.2854,
        "meta_ephemeris_type": 0,
        "meta_classification_type": "U",
        "meta_norad_cat_id": 66392,
        "meta_element_set_no": 999,
        "meta_rev_at_epoch": 550,
        "meta_bstar": -0.0072967239,
        "meta_mean_motion_dot": -0.00282829,
        "meta_mean_motion_ddot": 0,
        "tle_line1": "1 66392U 25257N   25340.58335648 -.00282829  00000+0 -72967-2 0  9998",
        "tle_line2": "2 66392  53.1603 293.4521 0001963  98.5523 226.2854 15.39738246  5500"
      },
      "geometry": {
        "type": "Point",
        "coordinates": [
          -126.95529367582562,
          -48.42306293361495
        ]
      }
    },
    {
      "type": "Feature",
      "properties": {
        "norad_id": 66393,
        "name": "STARLINK-35652",
        "group": "last-30-days",
        "lat": -15.546033894478605,
        "lon": -81.41064838336678,
        "alt_km": 450.5335591284638,
        "timestamp": "2025-12-07T03:52:31.202297+00:00",
        "meta_object_name": "STARLINK-35652",
        "meta_object_id": "2025-257P",
        "meta_epoch": "2025-12-06T14:00:01.999872",
        "meta_mean_motion": 15.39564496,
        "meta_eccentricity": 0.00017993,
        "meta_inclination": 53.1591,
        "meta_ra_of_asc_node": 293.3527,
        "meta_arg_of_pericenter": 98.6412,
        "meta_mean_anomaly": 275.8755,
        "meta_ephemeris_type": 0,
        "meta_classification_type": "U",
        "meta_norad_cat_id": 66393,
        "meta_element_set_no": 999,
        "meta_rev_at_epoch": 550,
        "meta_bstar": 0.0010949439,
        "meta_mean_motion_dot": 0.00043568,
        "meta_mean_motion_ddot": 0,
        "tle_line1": "1 66393U 25257P   25340.58335648  .00043568  00000+0  10949-2 0  9994",
        "tle_line2": "2 66393  53.1591 293.3527 0001799  98.6412 275.8755 15.39564496  5501"
      },
      "geometry": {
        "type": "Point",
        "coordinates": [
          -81.41064838336678,
          -15.546033894478605
        ]
      }
    },
    {
      "type": "Feature",
      "properties": {
        "norad_id": 66394,
        "name": "STARLINK-35672",
        "group": "last-30-days",
        "lat": -14.099553931174038,
        "lon": -80.23155574498479,
        "alt_km": 450.02572525268806,
        "timestamp": "2025-12-07T03:52:31.202308+00:00",
        "meta_object_name": "STARLINK-35672",
        "meta_object_id": "2025-257Q",
        "meta_epoch": "2025-12-06T14:00:01.999872",
        "meta_mean_motion": 15.39571701,
        "meta_eccentricity": 0.00016097,
        "meta_inclination": 53.1592,
        "meta_ra_of_asc_node": 293.3477,
        "meta_arg_of_pericenter": 85.107,
        "meta_mean_anomaly": 291.2377,
        "meta_ephemeris_type": 0,
        "meta_classification_type": "U",
        "meta_norad_cat_id": 66394,
        "meta_element_set_no": 999,
        "meta_rev_at_epoch": 550,
        "meta_bstar": 0.001144702,
        "meta_mean_motion_dot": 0.00045589,
        "meta_mean_motion_ddot": 0,
        "tle_line1": "1 66394U 25257Q   25340.58335648  .00045589  00000+0  11447-2 0  9994",
        "tle_line2": "2 66394  53.1592 293.3477 0001609  85.1070 291.2377 15.39571701  5507"
      },
      "geometry": {
        "type": "Point",
        "coordinates": [
          -80.23155574498479,
          -14.099553931174038
        ]
      }
    },
    {
      "type": "Feature",
      "properties": {
        "norad_id": 66395,
        "name": "STARLINK-35681",
        "group": "last-30-days",
        "lat": 4.855660137748812,
        "lon": -65.77142412228015,
        "alt_km": 448.8726364146178,
        "timestamp": "2025-12-07T03:52:31.202319+00:00",
        "meta_object_name": "STARLINK-35681",
        "meta_object_id": "2025-257R",
        "meta_epoch": "2025-12-06T14:00:01.999872",
        "meta_mean_motion": 15.39921494,
        "meta_eccentricity": 0.00012212,
        "meta_inclination": 53.1589,
        "meta_ra_of_asc_node": 293.3017,
        "meta_arg_of_pericenter": 127.2752,
        "meta_mean_anomaly": 272.8379,
        "meta_ephemeris_type": 0,
        "meta_classification_type": "U",
        "meta_norad_cat_id": 66395,
        "meta_element_set_no": 999,
        "meta_rev_at_epoch": 534,
        "meta_bstar": -0.013395332,
        "meta_mean_motion_dot": -0.00507062,
        "meta_mean_motion_ddot": 0,
        "tle_line1": "1 66395U 25257R   25340.58335648 -.00507062  00000+0 -13395-1 0  9999",
        "tle_line2": "2 66395  53.1589 293.3017 0001221 127.2752 272.8379 15.39921494  5346"
      },
      "geometry": {
        "type": "Point",
        "coordinates": [
          -65.77142412228015,
          4.855660137748812
        ]
      }
    },
    {
      "type": "Feature",
      "properties": {
        "norad_id": 66396,
        "name": "STARLINK-35669",
        "group": "last-30-days",
        "lat": 45.814367079638984,
        "lon": -19.06359444554877,
        "alt_km": 410.0444286049815,
        "timestamp": "2025-12-07T03:52:31.202330+00:00",
        "meta_object_name": "STARLINK-35669",
        "meta_object_id": "2025-257S",
        "meta_epoch": "2025-12-05T14:27:24.793056",
        "meta_mean_motion": 15.49619062,
        "meta_eccentricity": 0.00015262,
        "meta_inclination": 53.1591,
        "meta_ra_of_asc_node": 297.9221,
        "meta_arg_of_pericenter": 110.2235,
        "meta_mean_anomaly": 249.8938,
        "meta_ephemeris_type": 0,
        "meta_classification_type": "U",
        "meta_norad_cat_id": 66396,
        "meta_element_set_no": 999,
        "meta_rev_at_epoch": 527,
        "meta_bstar": 0.0020340148,
        "meta_mean_motion_dot": 0.00115623,
        "meta_mean_motion_ddot": 0,
        "tle_line1": "1 66396U 25257S   25339.60237029  .00115623  00000+0  20340-2 0  9990",
        "tle_line2": "2 66396  53.1591 297.9221 0001526 110.2235 249.8938 15.49619062  5276"
      },
      "geometry": {
        "type": "Point",
        "coordinates": [
          -19.06359444554877,
          45.814367079638984
        ]
      }
    }
  ]
}